ONEWEB-0674             
1 55833U 23029AP  24337.88804370 -.00000003  00000+0 -42427-4 0  9994
2 55833  87.9024  41.3494 0002220  88.3489 271.7895 13.14502805 85671
ONEWEB-0675             
1 55834U 23029AQ  24338.16297849  .00000081  00000+0  16975-3 0  9996
2 55834  87.9198  56.5440 0001533 113.8888 246.2405 13.19726055 85636
ONEWEB-0720             
1 55835U 23029AR  24337.85181319  .00000109  00000+0  24029-3 0  9996
2 55835  87.9194  56.6045 0001503  86.5589 273.5716 13.19725377 84808
ONEWEB-0537             
1 56046U 23043A   24337.72905173 -.00000019  00000+0 -83731-4 0  9993
2 56046  87.9085 340.6202 0001706  98.0365 262.0959 13.16591888 85086
ONEWEB-0538             
1 56047U 23043B   24337.72272456  .00000030  00000+0  45945-4 0  9991
2 56047  87.9131 340.6415 0001507  89.4599 270.6705 13.16593240 85096
ONEWEB-0546             
1 56048U 23043C   24337.71006173  .00000117  00000+0  27236-3 0  9990
2 56048  87.9081 340.6116 0001997 113.6913 246.4427 13.16592577 85085
ONEWEB-0547             
1 56049U 23043D   24337.80918038  .00000757  00000+0  18009-2 0  9990
2 56049  87.9287 355.8191 0001745  91.6057 268.5277 13.21830756 84065
ONEWEB-0548             
1 56050U 23043E   24337.73540236 -.00000055  00000+0 -17650-3 0  9990
2 56050  87.9094 340.6483 0002287  83.8067 276.3324 13.16592756 85087
